LOADCOMMANDID,OBFUSCATEDINTERNAL,PUBLICID,BATCHGEOCODE,CREATETIME,ADDRESSLINE1,ADDRESSLINE2,COUNTY,ADDRESSLINE3,SPATIALPOINT,CITYKANJI,ADDRESSLINE2KANJI,STATE,ADDRESSBOOKUID,UPDATETIME,COUNTRY,ID,EXTERNALLINKID,CREATEUSERID,VALIDUNTIL,ARCHIVEPARTITION,BEANVERSION,CITYDENORM,RETIRED,CITY,ADDRESSTYPE,ADDRESSLINE1KANJI,UPDATEUSERID,CEDEXBUREAU,GEOCODESTATUS,POSTALCODEDENORM,CEDEX,POSTALCODE,SUBTYPE,DESCRIPTION
,0,cc:19,0,2018-09-28 12:02:29.892,143 Lake Ave. Suite 500,,,,,,,10061,,2018-09-28 12:02:29.892,10001,19,,3,,,0,pasadena,0,Pasadena,10002.0,,3,,4,91253,,91253,1,Work address
,0,cc:20,0,2018-09-28 12:02:29.892,2050 Eagle Landing Blvd.,,,,,,,10126,,2018-09-28 12:02:29.892,10001,20,,3,,,0,charleston,0,Charleston,10002.0,,3,,4,29406,,29406,1,Work address
,0,cc:21,0,2018-09-28 12:02:29.892,143 Lake Ave. Suite 501,,,,,,,10061,,2018-09-28 12:02:29.892,10001,21,,3,,,0,pasadena,0,Pasadena,10002.0,,3,,4,91253,,91253,1,Work address
,0,cc:22,0,2018-09-28 12:02:29.892,143 Lake Ave. Suite 501,,,,,,,10061,,2018-09-28 12:02:29.892,10001,22,,3,,,0,pasadena,0,Pasadena,10002.0,,3,,4,91253,,91253,1,Work address
,0,cc:23,0,2018-09-28 12:02:29.892,143 Lake Ave. Suite 501,,,,,,,10061,,2018-09-28 12:02:29.892,10001,23,,3,,,0,pasadena,0,Pasadena,10002.0,,3,,4,91253,,91253,1,Work address
,0,cc:24,0,2018-09-28 12:02:29.892,143 Lake Ave. Suite 501,,,,,,,10061,,2018-09-28 12:02:29.892,10001,24,,3,,,0,pasadena,0,Pasadena,10002.0,,3,,4,91253,,91253,1,Work address
,0,cc:25,0,2018-09-28 12:02:29.892,143 Lake Ave. Suite 501,,,,,,,10061,,2018-09-28 12:02:29.892,10001,25,,3,,,0,pasadena,0,Pasadena,10002.0,,3,,4,91253,,91253,1,Work address
,0,cc:26,0,2018-09-28 12:02:29.892,143 Lake Ave. Suite 501,,,,,,,10061,,2018-09-28 12:02:29.892,10001,26,,3,,,0,pasadena,0,Pasadena,10002.0,,3,,4,91253,,91253,1,Work address
,0,cc:27,0,2018-09-28 12:02:29.892,143 Lake Ave. Suite 501,,,,,,,10061,,2018-09-28 12:02:29.892,10001,27,,3,,,0,pasadena,0,Pasadena,10002.0,,3,,4,91253,,91253,1,Work address
,0,cc:28,0,2018-09-28 12:02:29.892,143 Lake Ave. Suite 501,,,,,,,10061,,2018-09-28 12:02:29.892,10001,28,,3,,,0,pasadena,0,Pasadena,10002.0,,3,,4,91253,,91253,1,Work address
,0,cc:29,0,2018-09-28 12:02:29.892,143 Lake Ave. Suite 501,,,,,,,10061,,2018-09-28 12:02:29.892,10001,29,,3,,,0,pasadena,0,Pasadena,10002.0,,3,,4,91253,,91253,1,Work address
,0,cc:30,0,2018-09-28 12:02:29.892,143 Lake Ave. Suite 501,,,,,,,10061,,2018-09-28 12:02:29.892,10001,30,,3,,,0,pasadena,0,Pasadena,10002.0,,3,,4,91253,,91253,1,Work address
,0,cc:31,0,2018-09-28 12:02:29.892,143 Lake Ave. Suite 501,,,,,,,10061,,2018-09-28 12:02:29.892,10001,31,,3,,,0,pasadena,0,Pasadena,10002.0,,3,,4,91253,,91253,1,Work address
,0,cc:32,0,2018-09-28 12:02:29.892,143 Lake Ave. Suite 501,,,,,,,10061,,2018-09-28 12:02:29.892,10001,32,,3,,,0,pasadena,0,Pasadena,10002.0,,3,,4,91253,,91253,1,Work address
,0,cc:33,0,2018-09-28 12:02:29.892,143 Lake Ave. Suite 501,,,,,,,10061,,2018-09-28 12:02:29.892,10001,33,,3,,,0,pasadena,0,Pasadena,10002.0,,3,,4,91253,,91253,1,Work address
,0,cc:34,0,2018-09-28 12:02:29.892,143 Lake Ave. Suite 501,,,,,,,10061,,2018-09-28 12:02:29.892,10001,34,,3,,,0,pasadena,0,Pasadena,10002.0,,3,,4,91253,,91253,1,Work address
,0,cc:35,0,2018-09-28 12:02:29.892,143 Lake Ave. Suite 501,,,,,,,10061,,2018-09-28 12:02:29.892,10001,35,,3,,,0,pasadena,0,Pasadena,10002.0,,3,,4,91253,,91253,1,Work address
,0,cc:36,0,2018-09-28 12:02:29.892,143 Lake Ave. Suite 501,,,,,,,10061,,2018-09-28 12:02:29.892,10001,36,,3,,,0,pasadena,0,Pasadena,10002.0,,3,,4,91253,,91253,1,Work address
,0,cc:37,0,2018-09-28 12:02:29.892,143 Lake Ave. Suite 501,,,,,,,10061,,2018-09-28 12:02:29.892,10001,37,,3,,,0,pasadena,0,Pasadena,10002.0,,3,,4,91253,,91253,1,Work address
,0,cc:38,0,2018-09-28 12:02:29.892,143 Lake Ave. Suite 501,,,,,,,10061,,2018-09-28 12:02:29.892,10001,38,,3,,,0,pasadena,0,Pasadena,10002.0,,3,,4,91253,,91253,1,Work address
,0,cc:39,0,2018-09-28 12:02:29.892,143 Lake Ave. Suite 501,,,,,,,10061,,2018-09-28 12:02:29.892,10001,39,,3,,,0,pasadena,0,Pasadena,10002.0,,3,,4,91253,,91253,1,Work address
,0,cc:40,0,2018-09-28 12:02:29.892,143 Lake Ave. Suite 501,,,,,,,10061,,2018-09-28 12:02:29.892,10001,40,,3,,,0,pasadena,0,Pasadena,10002.0,,3,,4,91253,,91253,1,Work address
,0,cc:41,0,2018-09-28 12:02:29.892,143 Lake Ave. Suite 501,,,,,,,10061,,2018-09-28 12:02:29.892,10001,41,,3,,,0,pasadena,0,Pasadena,10002.0,,3,,4,91253,,91253,1,Work address
,0,cc:42,0,2018-09-28 12:02:29.892,143 Lake Ave. Suite 501,,,,,,,10061,,2018-09-28 12:02:29.892,10001,42,,3,,,0,pasadena,0,Pasadena,10002.0,,3,,4,91253,,91253,1,Work address
,0,cc:43,0,2018-09-28 12:02:29.892,143 Lake Ave. Suite 501,,,,,,,10061,,2018-09-28 12:02:29.892,10001,43,,3,,,0,pasadena,0,Pasadena,10002.0,,3,,4,91253,,91253,1,Work address
,0,cc:44,0,2018-09-28 12:02:29.892,143 Lake Ave. Suite 501,,,,,,,10061,,2018-09-28 12:02:29.892,10001,44,,3,,,0,pasadena,0,Pasadena,10002.0,,3,,4,91253,,91253,1,Work address
,0,cc:45,0,2018-09-28 12:02:29.892,143 Lake Ave. Suite 501,,,,,,,10061,,2018-09-28 12:02:29.892,10001,45,,3,,,0,pasadena,0,Pasadena,10002.0,,3,,4,91253,,91253,1,Work address
,0,cc:46,0,2018-09-28 12:02:29.892,143 Lake Ave. Suite 501,,,,,,,10061,,2018-09-28 12:02:29.892,10001,46,,3,,,0,pasadena,0,Pasadena,10002.0,,3,,4,91253,,91253,1,Work address
,0,cc:47,0,2018-09-28 12:02:29.892,143 Lake Ave. Suite 501,,,,,,,10061,,2018-09-28 12:02:29.892,10001,47,,3,,,0,pasadena,0,Pasadena,10002.0,,3,,4,91253,,91253,1,Work address
,0,cc:48,0,2018-09-28 12:02:29.892,143 Lake Ave. Suite 501,,,,,,,10061,,2018-09-28 12:02:29.892,10001,48,,3,,,0,pasadena,0,Pasadena,10002.0,,3,,4,91253,,91253,1,Work address
,0,cc:49,0,2018-09-28 12:02:29.892,143 Lake Ave. Suite 501,,,,,,,10061,,2018-09-28 12:02:29.892,10001,49,,3,,,0,pasadena,0,Pasadena,10002.0,,3,,4,91253,,91253,1,Work address
,0,cc:50,0,2018-09-28 12:02:29.892,143 Lake Ave. Suite 501,,,,,,,10061,,2018-09-28 12:02:29.892,10001,50,,3,,,0,pasadena,0,Pasadena,10002.0,,3,,4,91253,,91253,1,Work address
,0,cc:51,0,2018-09-28 12:02:29.892,143 Lake Ave. Suite 501,,,,,,,10061,,2018-09-28 12:02:29.892,10001,51,,3,,,0,pasadena,0,Pasadena,10002.0,,3,,4,91253,,91253,1,Work address
,0,cc:52,0,2018-09-28 12:02:29.892,143 Lake Ave. Suite 501,,,,,,,10061,,2018-09-28 12:02:29.892,10001,52,,3,,,0,pasadena,0,Pasadena,10002.0,,3,,4,91253,,91253,1,Work address
,0,cc:53,0,2018-09-28 12:02:29.892,143 Lake Ave. Suite 501,,,,,,,10061,,2018-09-28 12:02:29.892,10001,53,,3,,,0,pasadena,0,Pasadena,10002.0,,3,,4,91253,,91253,1,Work address
,0,cc:54,0,2018-09-28 12:02:29.892,143 Lake Ave. Suite 501,,,,,,,10061,,2018-09-28 12:02:29.892,10001,54,,3,,,0,pasadena,0,Pasadena,10002.0,,3,,4,91253,,91253,1,Work address
,0,cc:55,0,2018-09-28 12:02:29.892,143 Lake Ave. Suite 501,,,,,,,10061,,2018-09-28 12:02:29.892,10001,55,,3,,,0,pasadena,0,Pasadena,10002.0,,3,,4,91253,,91253,1,Work address
,0,cc:56,0,2018-09-28 12:02:29.892,143 Lake Ave. Suite 501,,,,,,,10061,,2018-09-28 12:02:29.892,10001,56,,3,,,0,pasadena,0,Pasadena,10002.0,,3,,4,91253,,91253,1,Work address
,0,cc:57,0,2018-09-28 12:02:29.892,143 Lake Ave. Suite 501,,,,,,,10061,,2018-09-28 12:02:29.892,10001,57,,3,,,0,pasadena,0,Pasadena,10002.0,,3,,4,91253,,91253,1,Work address
,0,cc:58,0,2018-09-28 12:02:29.892,143 Lake Ave. Suite 501,,,,,,,10061,,2018-09-28 12:02:29.892,10001,58,,3,,,0,pasadena,0,Pasadena,10002.0,,3,,4,91253,,91253,1,Work address
,0,cc:59,0,2018-09-28 12:02:29.892,143 Lake Ave. Suite 501,,,,,,,10061,,2018-09-28 12:02:29.892,10001,59,,3,,,0,pasadena,0,Pasadena,10002.0,,3,,4,91253,,91253,1,Work address
,0,cc:60,0,2018-09-28 12:02:29.892,143 Lake Ave. Suite 501,,,,,,,10061,,2018-09-28 12:02:29.892,10001,60,,3,,,0,pasadena,0,Pasadena,10002.0,,3,,4,91253,,91253,1,Work address
,0,cc:61,0,2018-09-28 12:02:29.892,143 Lake Ave. Suite 501,,,,,,,10061,,2018-09-28 12:02:29.892,10001,61,,3,,,0,pasadena,0,Pasadena,10002.0,,3,,4,91253,,91253,1,Work address
,0,cc:62,0,2018-09-28 12:02:29.892,143 Lake Ave. Suite 501,,,,,,,10061,,2018-09-28 12:02:29.892,10001,62,,3,,,0,pasadena,0,Pasadena,10002.0,,3,,4,91253,,91253,1,Work address
,0,cc:63,0,2018-09-28 12:02:29.892,143 Lake Ave. Suite 501,,,,,,,10061,,2018-09-28 12:02:29.892,10001,63,,3,,,0,pasadena,0,Pasadena,10002.0,,3,,4,91253,,91253,1,Work address
,0,cc:92,0,2018-09-28 12:02:29.892,143 Lake Ave. Suite 501,,,,,,,10061,,2018-09-28 12:02:29.892,10001,92,,3,,,0,pasadena,0,Pasadena,10002.0,,3,,4,91253,,91253,1,Work address
,0,cc:93,0,2018-09-28 12:02:29.892,143 Lake Ave. Suite 501,,,,,,,10061,,2018-09-28 12:02:29.892,10001,93,,3,,,0,pasadena,0,Pasadena,10002.0,,3,,4,91253,,91253,1,Work address
,0,cc:94,0,2018-09-28 12:02:29.892,143 Lake Ave. Suite 501,,,,,,,10061,,2018-09-28 12:02:29.892,10001,94,,3,,,0,pasadena,0,Pasadena,10002.0,,3,,4,91253,,91253,1,Work address
,0,cc:95,0,2018-09-28 12:02:29.892,143 Lake Ave. Suite 501,,,,,,,10061,,2018-09-28 12:02:29.892,10001,95,,3,,,0,pasadena,0,Pasadena,10002.0,,3,,4,91253,,91253,1,Work address
,0,cc:96,0,2018-09-28 12:02:29.892,143 Lake Ave. Suite 501,,,,,,,10061,,2018-09-28 12:02:29.892,10001,96,,3,,,0,pasadena,0,Pasadena,10002.0,,3,,4,91253,,91253,1,Work address
,0,cc:97,0,2018-09-28 12:02:29.892,143 Lake Ave. Suite 501,,,,,,,10061,,2018-09-28 12:02:29.892,10001,97,,3,,,0,pasadena,0,Pasadena,10002.0,,3,,4,91253,,91253,1,Work address
,0,cc:98,0,2018-09-28 12:02:29.892,143 Lake Ave. Suite 501,,,,,,,10061,,2018-09-28 12:02:29.892,10001,98,,3,,,0,pasadena,0,Pasadena,10002.0,,3,,4,91253,,91253,1,Work address
,0,cc:99,0,2018-09-28 12:02:29.892,143 Lake Ave. Suite 501,,,,,,,10061,,2018-09-28 12:02:29.892,10001,99,,3,,,0,pasadena,0,Pasadena,10002.0,,3,,4,91253,,91253,1,Work address
,0,cc:100,0,2018-09-28 12:02:29.892,143 Lake Ave. Suite 501,,,,,,,10061,,2018-09-28 12:02:29.892,10001,100,,3,,,0,pasadena,0,Pasadena,10002.0,,3,,4,91253,,91253,1,Work address
,0,cc:101,0,2018-09-28 12:02:29.892,143 Lake Ave. Suite 501,,,,,,,10061,,2018-09-28 12:02:29.892,10001,101,,3,,,0,pasadena,0,Pasadena,10002.0,,3,,4,91253,,91253,1,Work address
,0,cc:102,0,2018-09-28 12:02:29.892,143 Lake Ave. Suite 501,,,,,,,10061,,2018-09-28 12:02:29.892,10001,102,,3,,,0,pasadena,0,Pasadena,10002.0,,3,,4,91253,,91253,1,Work address
,0,cc:103,0,2018-09-28 12:02:29.892,143 Lake Ave. Suite 501,,,,,,,10061,,2018-09-28 12:02:29.892,10001,103,,3,,,0,pasadena,0,Pasadena,10002.0,,3,,4,91253,,91253,1,Work address
,0,cc:104,0,2018-09-28 12:02:29.892,143 Lake Ave. Suite 501,,,,,,,10061,,2018-09-28 12:02:29.892,10001,104,,3,,,0,pasadena,0,Pasadena,10002.0,,3,,4,91253,,91253,1,Work address
,0,cc:105,0,2018-09-28 12:02:29.892,143 Lake Ave. Suite 501,,,,,,,10061,,2018-09-28 12:02:29.892,10001,105,,3,,,0,pasadena,0,Pasadena,10002.0,,3,,4,91253,,91253,1,Work address
,0,cc:106,0,2018-09-28 12:02:29.892,143 Lake Ave. Suite 501,,,,,,,10061,,2018-09-28 12:02:29.892,10001,106,,3,,,0,pasadena,0,Pasadena,10002.0,,3,,4,91253,,91253,1,Work address
,0,cc:107,0,2018-09-28 12:02:29.892,143 Lake Ave. Suite 501,,,,,,,10061,,2018-09-28 12:02:29.892,10001,107,,3,,,0,pasadena,0,Pasadena,10002.0,,3,,4,91253,,91253,1,Work address
,0,cc:108,0,2018-09-28 12:02:29.892,143 Lake Ave. Suite 501,,,,,,,10061,,2018-09-28 12:02:29.892,10001,108,,3,,,0,pasadena,0,Pasadena,10002.0,,3,,4,91253,,91253,1,Work address
,0,cc:109,0,2018-09-28 12:02:29.892,143 Lake Ave. Suite 501,,,,,,,10061,,2018-09-28 12:02:29.892,10001,109,,3,,,0,pasadena,0,Pasadena,10002.0,,3,,4,91253,,91253,1,Work address
,0,cc:110,0,2018-09-28 12:02:29.892,143 Lake Ave. Suite 501,,,,,,,10061,,2018-09-28 12:02:29.892,10001,110,,3,,,0,pasadena,0,Pasadena,10002.0,,3,,4,91253,,91253,1,Work address
,0,cc:111,0,2018-09-28 12:02:29.892,143 Lake Ave. Suite 501,,,,,,,10061,,2018-09-28 12:02:29.892,10001,111,,3,,,0,pasadena,0,Pasadena,10002.0,,3,,4,91253,,91253,1,Work address
,0,cc:112,0,2018-09-28 12:02:29.892,143 Lake Ave. Suite 501,,,,,,,10061,,2018-09-28 12:02:29.892,10001,112,,3,,,0,pasadena,0,Pasadena,10002.0,,3,,4,91253,,91253,1,Work address
,0,cc:113,0,2018-09-28 12:02:29.892,143 Lake Ave. Suite 501,,,,,,,10061,,2018-09-28 12:02:29.892,10001,113,,3,,,0,pasadena,0,Pasadena,10002.0,,3,,4,91253,,91253,1,Work address
,0,cc:114,0,2018-09-28 12:02:29.892,143 Lake Ave. Suite 501,,,,,,,10061,,2018-09-28 12:02:29.892,10001,114,,3,,,0,pasadena,0,Pasadena,10002.0,,3,,4,91253,,91253,1,Work address
,0,cc:115,0,2018-09-28 12:02:29.892,143 Lake Ave. Suite 501,,,,,,,10061,,2018-09-28 12:02:29.892,10001,115,,3,,,0,pasadena,0,Pasadena,10002.0,,3,,4,91253,,91253,1,Work address
,0,cc:116,0,2018-09-28 12:02:29.892,143 Lake Ave. Suite 501,,,,,,,10061,,2018-09-28 12:02:29.892,10001,116,,3,,,0,pasadena,0,Pasadena,10002.0,,3,,4,91253,,91253,1,Work address
,0,cc:117,0,2018-09-28 12:02:29.892,143 Lake Ave. Suite 501,,,,,,,10061,,2018-09-28 12:02:29.892,10001,117,,3,,,0,pasadena,0,Pasadena,10002.0,,3,,4,91253,,91253,1,Work address
,0,cc:118,0,2018-09-28 12:02:29.892,143 Lake Ave. Suite 501,,,,,,,10061,,2018-09-28 12:02:29.892,10001,118,,3,,,0,pasadena,0,Pasadena,10002.0,,3,,4,91253,,91253,1,Work address
,0,cc:119,0,2018-09-28 12:02:29.892,143 Lake Ave. Suite 501,,,,,,,10061,,2018-09-28 12:02:29.892,10001,119,,3,,,0,pasadena,0,Pasadena,10002.0,,3,,4,91253,,91253,1,Work address
,0,cc:120,0,2018-09-28 12:02:29.892,143 Lake Ave. Suite 501,,,,,,,10061,,2018-09-28 12:02:29.892,10001,120,,3,,,0,pasadena,0,Pasadena,10002.0,,3,,4,91253,,91253,1,Work address
,0,cc:121,0,2018-09-28 12:02:29.892,143 Lake Ave. Suite 501,,,,,,,10061,,2018-09-28 12:02:29.892,10001,121,,3,,,0,pasadena,0,Pasadena,10002.0,,3,,4,91253,,91253,1,Work address
,0,cc:122,0,2018-09-28 12:02:29.892,143 Lake Ave. Suite 501,,,,,,,10061,,2018-09-28 12:02:29.892,10001,122,,3,,,0,pasadena,0,Pasadena,10002.0,,3,,4,91253,,91253,1,Work address
,0,cc:123,0,2018-09-28 12:02:29.892,143 Lake Ave. Suite 501,,,,,,,10061,,2018-09-28 12:02:29.892,10001,123,,3,,,0,pasadena,0,Pasadena,10002.0,,3,,4,91253,,91253,1,Work address
,0,cc:124,0,2018-09-28 12:02:29.892,143 Lake Ave. Suite 501,,,,,,,10061,,2018-09-28 12:02:29.892,10001,124,,3,,,0,pasadena,0,Pasadena,10002.0,,3,,4,91253,,91253,1,Work address
,0,cc:125,0,2018-09-28 12:02:29.892,143 Lake Ave. Suite 501,,,,,,,10061,,2018-09-28 12:02:29.892,10001,125,,3,,,0,pasadena,0,Pasadena,10002.0,,3,,4,91253,,91253,1,Work address
,0,cc:126,0,2018-09-28 12:02:29.892,143 Lake Ave. Suite 501,,,,,,,10061,,2018-09-28 12:02:29.892,10001,126,,3,,,0,pasadena,0,Pasadena,10002.0,,3,,4,91253,,91253,1,Work address
,0,cc:127,0,2018-09-28 12:02:29.892,143 Lake Ave. Suite 501,,,,,,,10061,,2018-09-28 12:02:29.892,10001,127,,3,,,0,pasadena,0,Pasadena,10002.0,,3,,4,91253,,91253,1,Work address
,0,cc:128,0,2018-09-28 12:02:29.892,143 Lake Ave. Suite 501,,,,,,,10061,,2018-09-28 12:02:29.892,10001,128,,3,,,0,pasadena,0,Pasadena,10002.0,,3,,4,91253,,91253,1,Work address
,0,cc:129,0,2018-09-28 12:02:29.892,143 Lake Ave. Suite 501,,,,,,,10061,,2018-09-28 12:02:29.892,10001,129,,3,,,0,pasadena,0,Pasadena,10002.0,,3,,4,91253,,91253,1,Work address
,0,cc:130,0,2018-09-28 12:02:29.892,143 Lake Ave. Suite 501,,,,,,,10061,,2018-09-28 12:02:29.892,10001,130,,3,,,0,pasadena,0,Pasadena,10002.0,,3,,4,91253,,91253,1,Work address
,0,cc:131,0,2018-09-28 12:02:29.892,143 Lake Ave. Suite 501,,,,,,,10061,,2018-09-28 12:02:29.892,10001,131,,3,,,0,pasadena,0,Pasadena,10002.0,,3,,4,91253,,91253,1,Work address
,0,cc:132,0,2018-09-28 12:02:29.892,143 Lake Ave. Suite 501,,,,,,,10061,,2018-09-28 12:02:29.892,10001,132,,3,,,0,pasadena,0,Pasadena,10002.0,,3,,4,91253,,91253,1,Work address
,0,cc:133,0,2018-09-28 12:02:29.892,143 Lake Ave. Suite 501,,,,,,,10061,,2018-09-28 12:02:29.892,10001,133,,3,,,0,pasadena,0,Pasadena,10002.0,,3,,4,91253,,91253,1,Work address
,0,cc:134,0,2018-09-28 12:02:29.892,143 Lake Ave. Suite 501,,,,,,,10061,,2018-09-28 12:02:29.892,10001,134,,3,,,0,pasadena,0,Pasadena,10002.0,,3,,4,91253,,91253,1,Work address
,0,cc:135,0,2018-09-28 12:02:29.892,143 Lake Ave. Suite 501,,,,,,,10061,,2018-09-28 12:02:29.892,10001,135,,3,,,0,pasadena,0,Pasadena,10002.0,,3,,4,91253,,91253,1,Work address
,0,cc:201,0,2018-09-28 15:17:45.431,1805,,Maricopa,,,,,10053,ab:501,2018-09-28 15:18:57.084,10001,201,,3,,,1,phoenix,0,Phoenix,,,3,,4,85001,,85001,1,
,0,cc:202,0,2018-09-28 15:31:09.614,215 Maple Ave.,,,,,,,10085,,2018-09-28 15:31:39.387,10001,202,,3,,,1,thorndike,0,Thorndike,10003.0,,3,,4,01079,,01079,1,
,0,cc:203,0,2018-09-28 15:31:09.614,1244 Fair Oaks Ave,,,,,,,10061,,2018-09-28 15:31:09.614,10001,203,,3,,,0,pasadena,0,Pasadena,10003.0,,3,,4,91101,,91101,1,
,0,cc:206,0,2018-09-28 15:33:53.989,425 Madison St.,,,,,,,10074,,2018-09-28 15:34:08.392,10001,206,,3,,,1,chicago,0,Chicago,10002.0,,3,,4,60606,,60606,1,
,0,cc:207,0,2018-09-28 15:33:53.989,55 California St,,,,,,,10074,,2018-09-28 15:33:53.989,10001,207,,3,,,0,washington,0,Washington,10002.0,,3,,4,61571,,61571,1,
,0,cc:208,0,2018-09-28 15:33:53.989,2000 Park Avenue,,,,,,,10074,,2018-09-28 15:33:53.989,10001,208,,3,,,0,washington,0,Washington,10002.0,,3,,4,61571,,61571,1,
,0,cc:209,0,2018-09-28 15:33:53.989,908 Angels Landing Rd.,,,,,,,10061,,2018-09-28 15:33:53.989,10001,209,,3,,,0,anaheim,0,Anaheim,10003.0,,3,,4,91352,,91352,1,
,0,cc:210,0,2018-09-28 15:43:21.139,1244 Fair Oaks Ave,,,,,,,10061,,2018-09-28 15:43:21.139,10001,210,,174,,,0,pasadena,0,Pasadena,10003.0,,174,,4,91101,,91101,1,
,0,cc:211,0,2018-09-28 15:45:18.751,1244 Fair Oaks Ave,,,,,,,10061,,2018-09-28 15:45:18.751,10001,211,,175,,,0,pasadena,0,Pasadena,10003.0,,175,,4,91101,,91101,1,
,0,cc:212,0,2018-09-28 15:47:16.174,425 Madison St.,,,,,,,10074,,2018-09-28 15:47:16.174,10001,212,,176,,,0,chicago,0,Chicago,10002.0,,176,,4,60606,,60606,1,
,0,cc:213,0,2018-09-28 15:50:38.944,425 Madison St.,,,,,,,10074,,2018-09-28 15:51:32.884,10001,213,,3,,,1,chicago,0,Chicago,10002.0,,3,,4,60606,,60606,1,
,0,cc:214,0,2018-09-28 15:50:38.944,55 California St,,,,,,,10074,,2018-09-28 15:50:38.944,10001,214,,3,,,0,washington,0,Washington,10002.0,,3,,4,61571,,61571,1,
,0,cc:215,0,2018-09-28 15:50:38.944,2000 Park Avenue,,,,,,,10074,,2018-09-28 15:50:38.944,10001,215,,3,,,0,washington,0,Washington,10002.0,,3,,4,61571,,61571,1,
,0,cc:216,0,2018-09-28 15:50:38.944,908 Angels Landing Rd.,,,,,,,10061,,2018-09-28 15:50:38.944,10001,216,,3,,,0,anaheim,0,Anaheim,10003.0,,3,,4,91352,,91352,1,
,0,cc:217,0,2018-09-28 15:52:01.997,1806,,,,,,,10067,ab:503,2018-09-28 15:52:01.997,10001,217,,3,,,0,florida city,0,Florida City,,,3,,4,67890,,67890,1,
,0,cc:218,0,2018-09-28 15:52:58.113,215 Maple Ave.,,,,,,,10085,,2018-09-28 15:53:51.290,10001,218,,3,,,1,thorndike,0,Thorndike,10003.0,,3,,4,01079,,01079,1,
,0,cc:219,0,2018-09-28 15:52:58.113,1244 Fair Oaks Ave,,,,,,,10061,,2018-09-28 15:52:58.113,10001,219,,3,,,0,pasadena,0,Pasadena,10003.0,,3,,4,91101,,91101,1,
,0,cc:220,0,2018-09-28 15:54:17.180,1806,,,,,,,10067,ab:503,2018-09-28 15:54:17.180,10001,220,,3,,,0,florida city,0,Florida City,,,3,,4,67890,,67890,1,
,0,cc:221,0,2018-09-28 15:55:08.537,215 Maple Ave.,,,,,,,10085,,2018-09-28 15:56:02.295,10001,221,,3,,,1,thorndike,0,Thorndike,10003.0,,3,,4,01079,,01079,1,
,0,cc:222,0,2018-09-28 15:55:08.537,1244 Fair Oaks Ave,,,,,,,10061,,2018-09-28 15:55:08.537,10001,222,,3,,,0,pasadena,0,Pasadena,10003.0,,3,,4,91101,,91101,1,
,0,cc:223,0,2018-09-28 15:56:23.335,1806,,,,,,,10067,ab:503,2018-09-28 15:56:23.335,10001,223,,3,,,0,florida city,0,Florida City,,,3,,4,67890,,67890,1,
,0,cc:224,0,2018-09-28 16:10:55.238,1806,,,,,,,10067,,2018-09-28 16:10:55.238,10001,224,,177,,,0,florida city,0,Florida City,,,177,,4,67890,,67890,1,
,0,cc:225,0,2018-09-28 16:11:48.133,1806,,,,,,,10067,,2018-09-28 16:11:48.133,10001,225,,178,,,0,florida city,0,Florida City,,,178,,4,67890,,67890,1,
,0,cc:226,0,2018-09-28 16:12:49.398,1806,,,,,,,10067,,2018-09-28 16:12:49.398,10001,226,,174,,,0,florida city,0,Florida City,,,174,,4,67890,,67890,1,
,0,cc:227,0,2018-09-28 16:13:20.726,215 Maple Ave.,,,,,,,10085,,2018-09-28 16:14:03.332,10001,227,,174,,,1,thorndike,0,Thorndike,10003.0,,174,,4,01079,,01079,1,
,0,cc:228,0,2018-09-28 16:13:20.726,1244 Fair Oaks Ave,,,,,,,10061,,2018-09-28 16:13:20.726,10001,228,,174,,,0,pasadena,0,Pasadena,10003.0,,174,,4,91101,,91101,1,
,0,cc:229,0,2018-09-28 16:14:03.332,1809,,,,,,,10063,,2018-09-28 16:14:03.332,10001,229,,174,,,0,city,0,CIty,,,174,,4,67890,,67890,1,
,0,cc:230,0,2018-09-28 16:15:41.309,Test,,Jefferson,,,,,10062,ab:505,2018-09-28 16:15:47.791,10001,230,,174,,,1,test,0,Test,,,2,,4,80001,,80001,1,
,0,cc:231,0,2018-09-28 16:31:42.586,Test,,Jefferson,,,,,10062,,2018-09-28 16:31:42.586,10001,231,,175,,,0,test,0,Test,,,175,,4,80001,,80001,1,
,0,cc:232,0,2018-09-28 16:35:29.296,215 Maple Ave.,,,,,,,10085,,2018-09-28 16:37:32.126,10001,232,,3,,,1,thorndike,0,Thorndike,10003.0,,3,,4,01079,,01079,1,
,0,cc:233,0,2018-09-28 16:35:29.296,1244 Fair Oaks Ave,,,,,,,10061,,2018-09-28 16:35:29.296,10001,233,,3,,,0,pasadena,0,Pasadena,10003.0,,3,,4,91101,,91101,1,
,0,cc:234,0,2018-09-28 16:37:32.126,1908,,,,,,,10065,,2018-09-28 16:37:32.126,10001,234,,3,,,0,city,0,city,,,3,,4,09876,,09876,1,
,0,cc:235,0,2018-09-28 16:45:56.816,1244 Fair Oaks Ave,,,,,,,10061,,2018-09-28 16:45:56.816,10001,235,,176,,,0,pasadena,0,Pasadena,10003.0,,176,,4,91101,,91101,1,
,0,cc:236,0,2018-09-28 17:01:05.417,425 Madison St.,,,,,,,10074,,2018-09-28 17:04:06.293,10001,236,,3,,,1,chicago,0,Chicago,10002.0,,3,,4,60606,,60606,1,
,0,cc:237,0,2018-09-28 17:01:05.417,55 California St,,,,,,,10074,,2018-09-28 17:01:05.417,10001,237,,3,,,0,washington,0,Washington,10002.0,,3,,4,61571,,61571,1,
,0,cc:238,0,2018-09-28 17:01:05.417,2000 Park Avenue,,,,,,,10074,,2018-09-28 17:01:05.417,10001,238,,3,,,0,washington,0,Washington,10002.0,,3,,4,61571,,61571,1,
,0,cc:239,0,2018-09-28 17:01:05.417,908 Angels Landing Rd.,,,,,,,10061,,2018-09-28 17:01:05.417,10001,239,,3,,,0,anaheim,0,Anaheim,10003.0,,3,,4,91352,,91352,1,
,0,cc:240,0,2018-09-28 17:04:06.293,,,,,,,,10065,,2018-09-28 17:04:06.293,10001,240,,3,,,0,flo,0,Flo,,,3,,4,09876,,09876,1,
,0,cc:241,0,2018-09-28 17:04:41.037,1802,,,,,,,10061,ab:504,2018-09-28 17:04:41.037,10001,241,,3,,,0,city,0,CIty,,,3,,4,98765,,98765,1,
,0,cc:242,0,2018-09-28 17:08:36.566,425 Madison St.,,,,,,,10074,,2018-09-28 17:09:29.086,10001,242,,3,,,1,chicago,0,Chicago,10002.0,,3,,4,60606,,60606,1,
,0,cc:243,0,2018-09-28 17:08:36.566,55 California St,,,,,,,10074,,2018-09-28 17:08:36.566,10001,243,,3,,,0,washington,0,Washington,10002.0,,3,,4,61571,,61571,1,
,0,cc:244,0,2018-09-28 17:08:36.566,2000 Park Avenue,,,,,,,10074,,2018-09-28 17:08:36.566,10001,244,,3,,,0,washington,0,Washington,10002.0,,3,,4,61571,,61571,1,
,0,cc:245,0,2018-09-28 17:08:36.566,908 Angels Landing Rd.,,,,,,,10061,,2018-09-28 17:08:36.566,10001,245,,3,,,0,anaheim,0,Anaheim,10003.0,,3,,4,91352,,91352,1,
,0,cc:246,0,2018-09-28 17:09:54.196,1806,,,,,,,10067,ab:503,2018-09-28 17:09:54.196,10001,246,,3,,,0,florida city,0,Florida City,,,3,,4,67890,,67890,1,
,0,cc:247,0,2018-09-28 17:14:38.480,215 Maple Ave.,,,,,,,10085,,2018-09-28 17:17:12.868,10001,247,,3,,,1,thorndike,0,Thorndike,10003.0,,3,,4,01079,,01079,1,
,0,cc:248,0,2018-09-28 17:14:38.480,1244 Fair Oaks Ave,,,,,,,10061,,2018-09-28 17:14:38.480,10001,248,,3,,,0,pasadena,0,Pasadena,10003.0,,3,,4,91101,,91101,1,
,0,cc:249,0,2018-09-28 17:17:12.868,6204 Jorelle Dr,,,,,,,10061,ab:263,2018-09-28 17:17:12.868,10001,249,,3,,,0,san mateo,0,San Mateo,10003.0,,3,,4,94408,,94408,1,
,0,cc:250,0,2018-09-28 17:17:12.868,1041 Via Espana,,,,,,,10061,ab:264,2018-09-28 17:17:12.868,10001,250,,3,,,0,san mateo,0,San Mateo,10002.0,,3,,4,94416,,94416,1,
,0,cc:251,0,2018-09-28 17:18:04.694,215 Maple Ave.,,,,,,,10085,,2018-09-28 17:18:52.739,10001,251,,3,,,1,thorndike,0,Thorndike,10003.0,,3,,4,01079,,01079,1,
,0,cc:252,0,2018-09-28 17:18:04.694,1244 Fair Oaks Ave,,,,,,,10061,,2018-09-28 17:18:04.694,10001,252,,3,,,0,pasadena,0,Pasadena,10003.0,,3,,4,91101,,91101,1,
,0,cc:301,0,2018-09-30 19:39:23.707,55 California St,,,,,,,10074,,2018-09-30 19:39:23.707,10001,301,,3,,,0,washington,0,Washington,10002.0,,3,,4,61571,,61571,1,
,0,cc:136,0,2018-09-28 12:02:29.892,143 Lake Ave. Suite 501,,,,,,,10061,,2018-09-28 12:02:29.892,10001,136,,3,,,0,pasadena,0,Pasadena,10002.0,,3,,4,91253,,91253,1,Work address
,0,cc:137,0,2018-09-28 12:02:29.892,143 Lake Ave. Suite 501,,,,,,,10061,,2018-09-28 12:02:29.892,10001,137,,3,,,0,pasadena,0,Pasadena,10002.0,,3,,4,91253,,91253,1,Work address
,0,cc:138,0,2018-09-28 12:02:29.892,143 Lake Ave. Suite 501,,,,,,,10061,,2018-09-28 12:02:29.892,10001,138,,3,,,0,pasadena,0,Pasadena,10002.0,,3,,4,91253,,91253,1,Work address
,0,cc:139,0,2018-09-28 12:02:29.892,143 Lake Ave. Suite 501,,,,,,,10061,,2018-09-28 12:02:29.892,10001,139,,3,,,0,pasadena,0,Pasadena,10002.0,,3,,4,91253,,91253,1,Work address
,0,cc:140,0,2018-09-28 12:02:29.892,143 Lake Ave. Suite 501,,,,,,,10061,,2018-09-28 12:02:29.892,10001,140,,3,,,0,pasadena,0,Pasadena,10002.0,,3,,4,91253,,91253,1,Work address
,0,cc:141,0,2018-09-28 12:02:29.892,143 Lake Ave. Suite 501,,,,,,,10061,,2018-09-28 12:02:29.892,10001,141,,3,,,0,pasadena,0,Pasadena,10002.0,,3,,4,91253,,91253,1,Work address
,0,cc:142,0,2018-09-28 12:02:29.892,143 Lake Ave. Suite 501,,,,,,,10061,,2018-09-28 12:02:29.892,10001,142,,3,,,0,pasadena,0,Pasadena,10002.0,,3,,4,91253,,91253,1,Work address
,0,cc:143,0,2018-09-28 12:02:29.892,143 Lake Ave. Suite 501,,,,,,,10061,,2018-09-28 12:02:29.892,10001,143,,3,,,0,pasadena,0,Pasadena,10002.0,,3,,4,91253,,91253,1,Work address
,0,cc:144,0,2018-09-28 12:02:29.892,143 Lake Ave. Suite 501,,,,,,,10061,,2018-09-28 12:02:29.892,10001,144,,3,,,0,pasadena,0,Pasadena,10002.0,,3,,4,91253,,91253,1,Work address
,0,cc:145,0,2018-09-28 12:02:29.892,1500 Maple Ave.,,,,,,,10074,,2018-09-28 12:02:29.892,10001,145,,3,,,0,evanston,0,Evanston,10002.0,,3,,4,60201,,60201,1,Work address
,0,cc:146,0,2018-09-28 12:02:29.892,1500 Maple Ave.,,,,,,,10074,,2018-09-28 12:02:29.892,10001,146,,3,,,0,evanston,0,Evanston,10002.0,,3,,4,60201,,60201,1,Work address
,0,cc:147,0,2018-09-28 12:02:29.892,1500 Maple Ave.,,,,,,,10074,,2018-09-28 12:02:29.892,10001,147,,3,,,0,evanston,0,Evanston,10002.0,,3,,4,60201,,60201,1,Work address
,0,cc:148,0,2018-09-28 12:02:29.892,1500 Maple Ave.,,,,,,,10074,,2018-09-28 12:02:29.892,10001,148,,3,,,0,evanston,0,Evanston,10002.0,,3,,4,60201,,60201,1,Work address
,0,cc:149,0,2018-09-28 12:02:29.892,1500 Maple Ave.,,,,,,,10074,,2018-09-28 12:02:29.892,10001,149,,3,,,0,evanston,0,Evanston,10002.0,,3,,4,60201,,60201,1,Work address
,0,cc:150,0,2018-09-28 12:02:29.892,1500 Maple Ave.,,,,,,,10074,,2018-09-28 12:02:29.892,10001,150,,3,,,0,evanston,0,Evanston,10002.0,,3,,4,60201,,60201,1,Work address
,0,cc:151,0,2018-09-28 12:02:29.892,1500 Maple Ave.,,,,,,,10074,,2018-09-28 12:02:29.892,10001,151,,3,,,0,evanston,0,Evanston,10002.0,,3,,4,60201,,60201,1,Work address
,0,cc:152,0,2018-09-28 12:02:29.892,1500 Maple Ave.,,,,,,,10074,,2018-09-28 12:02:29.892,10001,152,,3,,,0,evanston,0,Evanston,10002.0,,3,,4,60201,,60201,1,Work address
,0,cc:153,0,2018-09-28 12:02:29.892,1500 Maple Ave.,,,,,,,10074,,2018-09-28 12:02:29.892,10001,153,,3,,,0,evanston,0,Evanston,10002.0,,3,,4,60201,,60201,1,Work address
,0,cc:154,0,2018-09-28 12:02:29.892,1500 Maple Ave.,,,,,,,10074,,2018-09-28 12:02:29.892,10001,154,,3,,,0,evanston,0,Evanston,10002.0,,3,,4,60201,,60201,1,Work address
,0,cc:155,0,2018-09-28 12:02:29.892,1500 Maple Ave.,,,,,,,10074,,2018-09-28 12:02:29.892,10001,155,,3,,,0,evanston,0,Evanston,10002.0,,3,,4,60201,,60201,1,Work address
,0,cc:156,0,2018-09-28 12:02:29.892,1500 Maple Ave.,,,,,,,10074,,2018-09-28 12:02:29.892,10001,156,,3,,,0,evanston,0,Evanston,10002.0,,3,,4,60201,,60201,1,Work address
,0,cc:157,0,2018-09-28 12:02:29.892,1500 Maple Ave.,,,,,,,10074,,2018-09-28 12:02:29.892,10001,157,,3,,,0,evanston,0,Evanston,10002.0,,3,,4,60201,,60201,1,Work address
,0,cc:158,0,2018-09-28 12:02:29.892,1500 Maple Ave.,,,,,,,10074,,2018-09-28 12:02:29.892,10001,158,,3,,,0,evanston,0,Evanston,10002.0,,3,,4,60201,,60201,1,Work address
,0,cc:159,0,2018-09-28 12:02:29.892,1500 Maple Ave.,,,,,,,10074,,2018-09-28 12:02:29.892,10001,159,,3,,,0,evanston,0,Evanston,10002.0,,3,,4,60201,,60201,1,Work address
,0,cc:160,0,2018-09-28 12:02:29.892,1500 Maple Ave.,,,,,,,10074,,2018-09-28 12:02:29.892,10001,160,,3,,,0,evanston,0,Evanston,10002.0,,3,,4,60201,,60201,1,Work address
,0,cc:161,0,2018-09-28 12:02:29.892,1500 Maple Ave.,,,,,,,10074,,2018-09-28 12:02:29.892,10001,161,,3,,,0,evanston,0,Evanston,10002.0,,3,,4,60201,,60201,1,Work address
,0,cc:162,0,2018-09-28 12:02:29.892,1500 Maple Ave.,,,,,,,10074,,2018-09-28 12:02:29.892,10001,162,,3,,,0,evanston,0,Evanston,10002.0,,3,,4,60201,,60201,1,Work address
,0,cc:163,0,2018-09-28 12:02:29.892,1500 Maple Ave.,,,,,,,10074,,2018-09-28 12:02:29.892,10001,163,,3,,,0,evanston,0,Evanston,10002.0,,3,,4,60201,,60201,1,Work address
,0,cc:164,0,2018-09-28 12:02:29.892,1500 Maple Ave.,,,,,,,10074,,2018-09-28 12:02:29.892,10001,164,,3,,,0,evanston,0,Evanston,10002.0,,3,,4,60201,,60201,1,Work address
,0,cc:165,0,2018-09-28 12:02:29.892,1500 Maple Ave.,,,,,,,10074,,2018-09-28 12:02:29.892,10001,165,,3,,,0,evanston,0,Evanston,10002.0,,3,,4,60201,,60201,1,Work address
,0,cc:166,0,2018-09-28 12:02:29.892,1500 Maple Ave.,,,,,,,10074,,2018-09-28 12:02:29.892,10001,166,,3,,,0,evanston,0,Evanston,10002.0,,3,,4,60201,,60201,1,Work address
,0,cc:167,0,2018-09-28 12:02:29.892,1500 Maple Ave.,,,,,,,10074,,2018-09-28 12:02:29.892,10001,167,,3,,,0,evanston,0,Evanston,10002.0,,3,,4,60201,,60201,1,Work address
,0,cc:168,0,2018-09-28 12:02:29.892,1500 Maple Ave.,,,,,,,10074,,2018-09-28 12:02:29.892,10001,168,,3,,,0,evanston,0,Evanston,10002.0,,3,,4,60201,,60201,1,Work address
,0,cc:169,0,2018-09-28 12:02:29.892,1500 Maple Ave.,,,,,,,10074,,2018-09-28 12:02:29.892,10001,169,,3,,,0,evanston,0,Evanston,10002.0,,3,,4,60201,,60201,1,Work address
,0,cc:170,0,2018-09-28 12:02:29.892,2050 Eagle Landing Blvd.,,,,,,,10126,,2018-09-28 12:02:29.892,10001,170,,3,,,0,charleston,0,Charleston,10002.0,,3,,4,29406,,29406,1,Work address
,0,cc:171,0,2018-09-28 12:02:29.892,143 Lake Ave. Suite 501,,,,,,,10061,,2018-09-28 12:02:29.892,10001,171,,3,,,0,pasadena,0,Pasadena,10002.0,,3,,4,91253,,91253,1,Work address
,0,cc:172,0,2018-09-28 12:02:29.892,143 Lake Ave. Suite 501,,,,,,,10061,,2018-09-28 12:02:29.892,10001,172,,3,,,0,pasadena,0,Pasadena,10002.0,,3,,4,91253,,91253,1,Work address
,0,cc:173,0,2018-09-28 12:02:29.892,143 Lake Ave. Suite 501,,,,,,,10061,,2018-09-28 12:02:29.892,10001,173,,3,,,0,pasadena,0,Pasadena,10002.0,,3,,4,91253,,91253,1,Work address
,0,cc:174,0,2018-09-28 12:02:29.892,143 Lake Ave. Suite 501,,,,,,,10061,,2018-09-28 12:02:29.892,10001,174,,3,,,0,pasadena,0,Pasadena,10002.0,,3,,4,91253,,91253,1,Work address
,0,cc:175,0,2018-09-28 12:02:29.892,143 Lake Ave. Suite 501,,,,,,,10061,,2018-09-28 12:02:29.892,10001,175,,3,,,0,pasadena,0,Pasadena,10002.0,,3,,4,91253,,91253,1,Work address
,0,cc:176,0,2018-09-28 12:02:29.892,1750 Vine St,,,,,,,10061,,2018-09-28 12:02:29.892,10001,176,,3,,,0,hollywood,0,Hollywood,10002.0,,3,,4,90028,,90028,1,Work address
,0,cc:177,0,2018-09-28 12:02:29.892,1750 Vine St,,,,,,,10061,,2018-09-28 12:02:29.892,10001,177,,3,,,0,hollywood,0,Hollywood,10002.0,,3,,4,90028,,90028,1,Work address
,0,cc:178,0,2018-09-28 12:02:29.892,1750 Vine St,,,,,,,10061,,2018-09-28 12:02:29.892,10001,178,,3,,,0,hollywood,0,Hollywood,10002.0,,3,,4,90028,,90028,1,Work address
,0,cc:179,0,2018-09-28 12:02:29.892,1750 Vine St,,,,,,,10061,,2018-09-28 12:02:29.892,10001,179,,3,,,0,hollywood,0,Hollywood,10002.0,,3,,4,90028,,90028,1,Work address
,0,cc:204,0,2018-09-28 15:32:41.441,215 Maple Ave.,,,,,,,10085,,2018-09-28 15:33:10.300,10001,204,,3,,,1,thorndike,0,Thorndike,10003.0,,3,,4,01079,,01079,1,
,0,cc:205,0,2018-09-28 15:32:41.441,1244 Fair Oaks Ave,,,,,,,10061,,2018-09-28 15:32:41.441,10001,205,,3,,,0,pasadena,0,Pasadena,10003.0,,3,,4,91101,,91101,1,
,0,cc:1,0,2018-09-28 11:59:34.351,52 Dove Ct.,,,,,,,10061,,2018-09-28 11:59:34.351,10001,1,,3,,,0,riverside,0,Riverside,10003.0,,3,,4,91006,,91006,1,
,0,cc:2,0,2018-09-28 11:59:34.351,8356 Mountain View Rd.,,,,,,,10061,,2018-09-28 11:59:34.351,10001,2,,3,,,0,san bernadino,0,San Bernadino,10003.0,,3,,4,91112,,91112,1,
,0,cc:3,0,2018-09-28 11:59:34.351,725 Pacific Circle,,,,,,,10061,,2018-09-28 11:59:34.351,10001,3,,3,,,0,long beach,0,Long Beach,10003.0,,3,,4,91101,,91101,1,
,0,cc:4,0,2018-09-28 11:59:34.351,908 Angels Landing Rd.,,,,,,,10061,,2018-09-28 11:59:34.351,10001,4,,3,,,0,anaheim,0,Anaheim,10003.0,,3,,4,91352,,91352,1,
,0,cc:5,0,2018-09-28 11:59:34.351,3150 Old School Rd.,,Cleveland,,,,,10101,,2018-09-28 11:59:34.351,10001,5,,3,,,0,shelby,0,Shelby,10002.0,,3,,4,28150,,28150,1,
,0,cc:6,0,2018-09-28 11:59:34.351,1247 Fair Oaks Ave,,,,,,,10061,,2018-09-28 11:59:34.351,10001,6,,3,,,0,pasadena,0,Pasadena,10002.0,,3,,4,91101,,91101,1,
,0,cc:7,0,2018-09-28 11:59:34.351,3160 Juniper Rd.,,Cleveland,,,,,10101,,2018-09-28 11:59:34.351,10001,7,,3,,,0,shelby,0,Shelby,10002.0,,3,,4,28150,,28150,1,
,0,cc:8,0,2018-09-28 11:59:34.351,253 McAfee Ct.,,,,,,,10061,,2018-09-28 11:59:34.351,10001,8,,3,,,0,thousand oaks,0,Thousand Oaks,10003.0,,3,,4,91145,,91145,1,
,0,cc:9,0,2018-09-28 11:59:34.351,1075 Aspen Lane,,,,,,,10061,,2018-09-28 11:59:34.351,10001,9,,3,,,0,diamond view,0,Diamond View,10003.0,,3,,4,91357,,91357,1,
,0,cc:10,0,2018-09-28 11:59:34.351,253 McAfee Ct.,,,,,,,10061,,2018-09-28 11:59:34.351,10001,10,,3,,,0,thousand oaks,0,Thousand Oaks,10003.0,,3,,4,91145,,91145,1,
,0,cc:11,0,2018-09-28 11:59:34.351,2000 Park Avenue,,,,,,,10074,,2018-09-28 11:59:34.351,10001,11,,3,,,0,washington,0,Washington,10002.0,,3,,4,61571,,61571,1,
,0,cc:12,0,2018-09-28 11:59:34.351,1248 Fair Oaks Ave,,,,,,,10061,,2018-09-28 11:59:34.351,10001,12,,3,,,0,pasadena,0,Pasadena,10002.0,,3,,4,91101,,91101,1,
,0,cc:13,0,2018-09-28 11:59:34.351,1245 Fair Oaks Ave,,,,,,,10061,,2018-09-28 11:59:34.351,10001,13,,3,,,0,pasadena,0,Pasadena,10002.0,,3,,4,91101,,91101,1,
,0,cc:14,0,2018-09-28 11:59:34.351,1246 Fair Oaks Ave,,,,,,,10061,,2018-09-28 11:59:34.351,10001,14,,3,,,0,pasadena,0,Pasadena,10002.0,,3,,4,91101,,91101,1,
,0,cc:15,0,2018-09-28 11:59:54.298,425 Madison St.,,,,,,,10074,,2018-09-28 12:00:40.873,10001,15,,3,,,1,chicago,0,Chicago,10002.0,,3,,4,60606,,60606,1,
,0,cc:16,0,2018-09-28 11:59:54.298,55 California St,,,,,,,10074,,2018-09-28 11:59:54.298,10001,16,,3,,,0,washington,0,Washington,10002.0,,3,,4,61571,,61571,1,
,0,cc:17,0,2018-09-28 11:59:54.298,908 Angels Landing Rd.,,,,,,,10061,,2018-09-28 11:59:54.298,10001,17,,3,,,0,anaheim,0,Anaheim,10003.0,,3,,4,91352,,91352,1,
,0,cc:18,0,2018-09-28 11:59:54.298,2000 Park Avenue,,,,,,,10074,,2018-09-28 11:59:54.298,10001,18,,3,,,0,washington,0,Washington,10002.0,,3,,4,61571,,61571,1,
,0,cc:64,0,2018-09-28 12:02:29.892,143 Lake Ave. Suite 501,,,,,,,10061,,2018-09-28 12:02:29.892,10001,64,,3,,,0,pasadena,0,Pasadena,10002.0,,3,,4,91253,,91253,1,Work address
,0,cc:65,0,2018-09-28 12:02:29.892,143 Lake Ave. Suite 501,,,,,,,10061,,2018-09-28 12:02:29.892,10001,65,,3,,,0,pasadena,0,Pasadena,10002.0,,3,,4,91253,,91253,1,Work address
,0,cc:66,0,2018-09-28 12:02:29.892,143 Lake Ave. Suite 501,,,,,,,10061,,2018-09-28 12:02:29.892,10001,66,,3,,,0,pasadena,0,Pasadena,10002.0,,3,,4,91253,,91253,1,Work address
,0,cc:67,0,2018-09-28 12:02:29.892,143 Lake Ave. Suite 501,,,,,,,10061,,2018-09-28 12:02:29.892,10001,67,,3,,,0,pasadena,0,Pasadena,10002.0,,3,,4,91253,,91253,1,Work address
,0,cc:68,0,2018-09-28 12:02:29.892,143 Lake Ave. Suite 501,,,,,,,10061,,2018-09-28 12:02:29.892,10001,68,,3,,,0,pasadena,0,Pasadena,10002.0,,3,,4,91253,,91253,1,Work address
,0,cc:69,0,2018-09-28 12:02:29.892,143 Lake Ave. Suite 501,,,,,,,10061,,2018-09-28 12:02:29.892,10001,69,,3,,,0,pasadena,0,Pasadena,10002.0,,3,,4,91253,,91253,1,Work address
,0,cc:70,0,2018-09-28 12:02:29.892,143 Lake Ave. Suite 501,,,,,,,10061,,2018-09-28 12:02:29.892,10001,70,,3,,,0,pasadena,0,Pasadena,10002.0,,3,,4,91253,,91253,1,Work address
,0,cc:71,0,2018-09-28 12:02:29.892,143 Lake Ave. Suite 501,,,,,,,10061,,2018-09-28 12:02:29.892,10001,71,,3,,,0,pasadena,0,Pasadena,10002.0,,3,,4,91253,,91253,1,Work address
,0,cc:72,0,2018-09-28 12:02:29.892,143 Lake Ave. Suite 501,,,,,,,10061,,2018-09-28 12:02:29.892,10001,72,,3,,,0,pasadena,0,Pasadena,10002.0,,3,,4,91253,,91253,1,Work address
,0,cc:73,0,2018-09-28 12:02:29.892,143 Lake Ave. Suite 501,,,,,,,10061,,2018-09-28 12:02:29.892,10001,73,,3,,,0,pasadena,0,Pasadena,10002.0,,3,,4,91253,,91253,1,Work address
,0,cc:74,0,2018-09-28 12:02:29.892,143 Lake Ave. Suite 501,,,,,,,10061,,2018-09-28 12:02:29.892,10001,74,,3,,,0,pasadena,0,Pasadena,10002.0,,3,,4,91253,,91253,1,Work address
,0,cc:75,0,2018-09-28 12:02:29.892,143 Lake Ave. Suite 501,,,,,,,10061,,2018-09-28 12:02:29.892,10001,75,,3,,,0,pasadena,0,Pasadena,10002.0,,3,,4,91253,,91253,1,Work address
,0,cc:76,0,2018-09-28 12:02:29.892,143 Lake Ave. Suite 501,,,,,,,10061,,2018-09-28 12:02:29.892,10001,76,,3,,,0,pasadena,0,Pasadena,10002.0,,3,,4,91253,,91253,1,Work address
,0,cc:77,0,2018-09-28 12:02:29.892,143 Lake Ave. Suite 501,,,,,,,10061,,2018-09-28 12:02:29.892,10001,77,,3,,,0,pasadena,0,Pasadena,10002.0,,3,,4,91253,,91253,1,Work address
,0,cc:78,0,2018-09-28 12:02:29.892,143 Lake Ave. Suite 501,,,,,,,10061,,2018-09-28 12:02:29.892,10001,78,,3,,,0,pasadena,0,Pasadena,10002.0,,3,,4,91253,,91253,1,Work address
,0,cc:79,0,2018-09-28 12:02:29.892,143 Lake Ave. Suite 501,,,,,,,10061,,2018-09-28 12:02:29.892,10001,79,,3,,,0,pasadena,0,Pasadena,10002.0,,3,,4,91253,,91253,1,Work address
,0,cc:80,0,2018-09-28 12:02:29.892,143 Lake Ave. Suite 501,,,,,,,10061,,2018-09-28 12:02:29.892,10001,80,,3,,,0,pasadena,0,Pasadena,10002.0,,3,,4,91253,,91253,1,Work address
,0,cc:81,0,2018-09-28 12:02:29.892,143 Lake Ave. Suite 501,,,,,,,10061,,2018-09-28 12:02:29.892,10001,81,,3,,,0,pasadena,0,Pasadena,10002.0,,3,,4,91253,,91253,1,Work address
,0,cc:82,0,2018-09-28 12:02:29.892,143 Lake Ave. Suite 501,,,,,,,10061,,2018-09-28 12:02:29.892,10001,82,,3,,,0,pasadena,0,Pasadena,10002.0,,3,,4,91253,,91253,1,Work address
,0,cc:83,0,2018-09-28 12:02:29.892,143 Lake Ave. Suite 501,,,,,,,10061,,2018-09-28 12:02:29.892,10001,83,,3,,,0,pasadena,0,Pasadena,10002.0,,3,,4,91253,,91253,1,Work address
,0,cc:84,0,2018-09-28 12:02:29.892,143 Lake Ave. Suite 501,,,,,,,10061,,2018-09-28 12:02:29.892,10001,84,,3,,,0,pasadena,0,Pasadena,10002.0,,3,,4,91253,,91253,1,Work address
,0,cc:85,0,2018-09-28 12:02:29.892,143 Lake Ave. Suite 501,,,,,,,10061,,2018-09-28 12:02:29.892,10001,85,,3,,,0,pasadena,0,Pasadena,10002.0,,3,,4,91253,,91253,1,Work address
,0,cc:86,0,2018-09-28 12:02:29.892,143 Lake Ave. Suite 501,,,,,,,10061,,2018-09-28 12:02:29.892,10001,86,,3,,,0,pasadena,0,Pasadena,10002.0,,3,,4,91253,,91253,1,Work address
,0,cc:87,0,2018-09-28 12:02:29.892,143 Lake Ave. Suite 501,,,,,,,10061,,2018-09-28 12:02:29.892,10001,87,,3,,,0,pasadena,0,Pasadena,10002.0,,3,,4,91253,,91253,1,Work address
,0,cc:88,0,2018-09-28 12:02:29.892,143 Lake Ave. Suite 501,,,,,,,10061,,2018-09-28 12:02:29.892,10001,88,,3,,,0,pasadena,0,Pasadena,10002.0,,3,,4,91253,,91253,1,Work address
,0,cc:89,0,2018-09-28 12:02:29.892,143 Lake Ave. Suite 501,,,,,,,10061,,2018-09-28 12:02:29.892,10001,89,,3,,,0,pasadena,0,Pasadena,10002.0,,3,,4,91253,,91253,1,Work address
,0,cc:90,0,2018-09-28 12:02:29.892,143 Lake Ave. Suite 501,,,,,,,10061,,2018-09-28 12:02:29.892,10001,90,,3,,,0,pasadena,0,Pasadena,10002.0,,3,,4,91253,,91253,1,Work address
,0,cc:91,0,2018-09-28 12:02:29.892,143 Lake Ave. Suite 501,,,,,,,10061,,2018-09-28 12:02:29.892,10001,91,,3,,,0,pasadena,0,Pasadena,10002.0,,3,,4,91253,,91253,1,Work address
,0,cc:302,0,2018-09-30 19:39:23.707,425 Madison St.,,,,,,,10074,,2018-09-30 19:40:14.960,10001,302,,3,,,1,chicago,0,Chicago,10002.0,,3,,4,60606,,60606,1,
,0,cc:303,0,2018-09-30 19:39:23.707,2000 Park Avenue,,,,,,,10074,,2018-09-30 19:39:23.707,10001,303,,3,,,0,washington,0,Washington,10002.0,,3,,4,61571,,61571,1,
,0,cc:304,0,2018-09-30 19:39:23.707,908 Angels Landing Rd.,,,,,,,10061,,2018-09-30 19:39:23.707,10001,304,,3,,,0,anaheim,0,Anaheim,10003.0,,3,,4,91352,,91352,1,
,0,cc:307,0,2018-09-30 19:43:56.532,1244 Fair Oaks Ave,,,,,,,10061,,2018-09-30 19:43:56.532,10001,307,,3,,,0,pasadena,0,Pasadena,10003.0,,3,,4,91101,,91101,1,
,0,cc:308,0,2018-09-30 19:43:56.532,215 Maple Ave.,,,,,,,10085,,2018-09-30 19:44:36.624,10001,308,,3,,,1,thorndike,0,Thorndike,10003.0,,3,,4,01079,,01079,1,
,0,cc:317,0,2018-09-30 19:53:47.056,55 California St,,,,,,,10074,,2018-09-30 19:53:47.056,10001,317,,3,,,0,washington,0,Washington,10002.0,,3,,4,61571,,61571,1,
,0,cc:318,0,2018-09-30 19:53:47.056,425 Madison St.,,,,,,,10074,,2018-09-30 19:58:25.195,10001,318,,3,,,1,chicago,0,Chicago,10002.0,,3,,4,60606,,60606,1,
,0,cc:319,0,2018-09-30 19:53:47.056,2000 Park Avenue,,,,,,,10074,,2018-09-30 19:53:47.056,10001,319,,3,,,0,washington,0,Washington,10002.0,,3,,4,61571,,61571,1,
,0,cc:320,0,2018-09-30 19:53:47.056,908 Angels Landing Rd.,,,,,,,10061,,2018-09-30 19:53:47.056,10001,320,,3,,,0,anaheim,0,Anaheim,10003.0,,3,,4,91352,,91352,1,
,0,cc:321,0,2018-09-30 19:59:59.101,1244 Fair Oaks Ave,,,,,,,10061,,2018-09-30 19:59:59.101,10001,321,,3,,,0,pasadena,0,Pasadena,10003.0,,3,,4,91101,,91101,1,
,0,cc:322,0,2018-09-30 19:59:59.101,215 Maple Ave.,,,,,,,10085,,2018-09-30 20:03:59.187,10001,322,,3,,,1,thorndike,0,Thorndike,10003.0,,3,,4,01079,,01079,1,
,0,cc:327,0,2018-09-30 20:16:44.493,,,Duval,,,,,10067,ab:601,2018-09-30 20:26:14.850,10001,327,,3,,,1,duvalcity,0,Duvalcity,,,2,,4,78907,,78907,1,
,0,cc:405,0,2018-10-01 11:18:58.956,,,Duval,,,,,10067,,2018-10-01 11:18:58.956,10001,405,,3,,,0,duvalcity,0,Duvalcity,,,3,,4,78907,,78907,1,
,0,cc:410,0,2018-10-01 11:28:03.738,,,Duval,,,,,10067,,2018-10-01 11:28:03.738,10001,410,,3,,,0,duvalcity,0,Duvalcity,,,3,,4,78907,,78907,1,
,0,cc:407,0,2018-10-01 11:18:58.956,,,Duval,,,,,10067,ab:601,2018-10-01 11:18:58.956,10001,407,,3,,,0,duvalcity,0,Duvalcity,,,3,,4,78907,,78907,1,
,0,cc:408,0,2018-10-01 11:20:02.198,,,Duval,,,,,10067,,2018-10-01 11:20:02.198,10001,408,,178,,,0,duvalcity,0,Duvalcity,,,178,,4,78907,,78907,1,
,0,cc:409,0,2018-10-01 11:23:21.872,,,Duval,,,,,10067,,2018-10-01 11:23:21.872,10001,409,,178,,,0,duvalcity,0,Duvalcity,,,178,,4,78907,,78907,1,
,0,cc:413,0,2018-10-01 11:31:43.372,1806,,,,,,,10067,ab:503,2018-10-01 11:31:43.372,10001,413,,178,,,0,florida city,0,Florida City,,,178,,4,67890,,67890,1,
,0,cc:414,0,2018-10-01 11:34:28.454,1806,,,,,,,10067,,2018-10-01 11:34:28.454,10001,414,,178,,,0,florida city,0,Florida City,,,178,,4,67890,,67890,1,
,0,cc:330,0,2018-09-30 21:40:59.821,1244 Fair Oaks Ave,,,,,,,10061,,2018-09-30 21:40:59.821,10001,330,,3,,,0,pasadena,0,Pasadena,10003.0,,3,,4,91101,,91101,1,
,0,cc:331,0,2018-09-30 21:40:59.821,215 Maple Ave.,,,,,,,10085,,2018-09-30 21:42:17.359,10001,331,,3,,,1,thorndike,0,Thorndike,10003.0,,3,,4,01079,,01079,1,
,0,cc:332,0,2018-09-30 22:09:57.381,55 California St,,,,,,,10074,,2018-09-30 22:09:57.381,10001,332,,3,,,0,washington,0,Washington,10002.0,,3,,4,61571,,61571,1,
,0,cc:333,0,2018-09-30 22:09:57.381,425 Madison St.,,,,,,,10074,,2018-09-30 22:10:50.295,10001,333,,3,,,1,chicago,0,Chicago,10002.0,,3,,4,60606,,60606,1,
,0,cc:334,0,2018-09-30 22:09:57.381,2000 Park Avenue,,,,,,,10074,,2018-09-30 22:09:57.381,10001,334,,3,,,0,washington,0,Washington,10002.0,,3,,4,61571,,61571,1,
,0,cc:335,0,2018-09-30 22:09:57.381,908 Angels Landing Rd.,,,,,,,10061,,2018-09-30 22:09:57.381,10001,335,,3,,,0,anaheim,0,Anaheim,10003.0,,3,,4,91352,,91352,1,
,0,cc:338,0,2018-09-30 22:13:32.512,1244 Fair Oaks Ave,,,,,,,10061,,2018-09-30 22:13:32.512,10001,338,,3,,,0,pasadena,0,Pasadena,10003.0,,3,,4,91101,,91101,1,
,0,cc:339,0,2018-09-30 22:13:32.512,215 Maple Ave.,,,,,,,10085,,2018-09-30 22:13:52.712,10001,339,,3,,,1,thorndike,0,Thorndike,10003.0,,3,,4,01079,,01079,1,
,0,cc:340,0,2018-09-30 22:14:40.602,55 California St,,,,,,,10074,,2018-09-30 22:14:40.602,10001,340,,3,,,0,washington,0,Washington,10002.0,,3,,4,61571,,61571,1,
,0,cc:341,0,2018-09-30 22:14:40.602,425 Madison St.,,,,,,,10074,,2018-09-30 22:14:56.894,10001,341,,3,,,1,chicago,0,Chicago,10002.0,,3,,4,60606,,60606,1,
,0,cc:342,0,2018-09-30 22:14:40.602,2000 Park Avenue,,,,,,,10074,,2018-09-30 22:14:40.602,10001,342,,3,,,0,washington,0,Washington,10002.0,,3,,4,61571,,61571,1,
,0,cc:343,0,2018-09-30 22:14:40.602,908 Angels Landing Rd.,,,,,,,10061,,2018-09-30 22:14:40.602,10001,343,,3,,,0,anaheim,0,Anaheim,10003.0,,3,,4,91352,,91352,1,
,0,cc:344,0,2018-09-30 22:15:16.028,1244 Fair Oaks Ave,,,,,,,10061,,2018-09-30 22:15:16.028,10001,344,,3,,,0,pasadena,0,Pasadena,10003.0,,3,,4,91101,,91101,1,
,0,cc:345,0,2018-09-30 22:15:16.028,215 Maple Ave.,,,,,,,10085,,2018-09-30 22:15:30.957,10001,345,,3,,,1,thorndike,0,Thorndike,10003.0,,3,,4,01079,,01079,1,
,0,cc:346,0,2018-09-30 22:15:57.917,1244 Fair Oaks Ave,,,,,,,10061,,2018-09-30 22:15:57.917,10001,346,,3,,,0,pasadena,0,Pasadena,10003.0,,3,,4,91101,,91101,1,
,0,cc:347,0,2018-09-30 22:15:57.917,215 Maple Ave.,,,,,,,10085,,2018-09-30 22:16:12.588,10001,347,,3,,,1,thorndike,0,Thorndike,10003.0,,3,,4,01079,,01079,1,
,0,cc:348,0,2018-09-30 22:17:31.303,55 California St,,,,,,,10074,,2018-09-30 22:17:31.303,10001,348,,3,,,0,washington,0,Washington,10002.0,,3,,4,61571,,61571,1,
,0,cc:349,0,2018-09-30 22:17:31.303,425 Madison St.,,,,,,,10074,,2018-09-30 22:17:48.849,10001,349,,3,,,1,chicago,0,Chicago,10002.0,,3,,4,60606,,60606,1,
,0,cc:350,0,2018-09-30 22:17:31.303,2000 Park Avenue,,,,,,,10074,,2018-09-30 22:17:31.303,10001,350,,3,,,0,washington,0,Washington,10002.0,,3,,4,61571,,61571,1,
,0,cc:351,0,2018-09-30 22:17:31.303,908 Angels Landing Rd.,,,,,,,10061,,2018-09-30 22:17:31.303,10001,351,,3,,,0,anaheim,0,Anaheim,10003.0,,3,,4,91352,,91352,1,
,0,cc:352,0,2018-09-30 22:23:05.785,55 California St,,,,,,,10074,,2018-09-30 22:23:05.785,10001,352,,3,,,0,washington,0,Washington,10002.0,,3,,4,61571,,61571,1,
,0,cc:353,0,2018-09-30 22:23:05.785,425 Madison St.,,,,,,,10074,,2018-09-30 22:23:38.147,10001,353,,3,,,1,chicago,0,Chicago,10002.0,,3,,4,60606,,60606,1,
,0,cc:354,0,2018-09-30 22:23:05.785,2000 Park Avenue,,,,,,,10074,,2018-09-30 22:23:05.785,10001,354,,3,,,0,washington,0,Washington,10002.0,,3,,4,61571,,61571,1,
,0,cc:355,0,2018-09-30 22:23:05.785,908 Angels Landing Rd.,,,,,,,10061,,2018-09-30 22:23:05.785,10001,355,,3,,,0,anaheim,0,Anaheim,10003.0,,3,,4,91352,,91352,1,
,0,cc:419,0,2018-10-01 11:50:37.959,1244 Fair Oaks Ave,,,,,,,10061,,2018-10-01 11:50:37.959,10001,419,,176,,,0,pasadena,0,Pasadena,10003.0,,176,,4,91101,,91101,1,
,0,cc:404,0,2018-10-01 11:10:27.859,,,Duval,,,,,10067,ab:601,2018-10-01 11:10:27.859,10001,404,,3,,,0,duvalcity,0,Duvalcity,,,3,,4,78907,,78907,1,
,0,cc:411,0,2018-10-01 11:31:10.612,1800,,Call,,,,,10061,,2018-10-01 11:31:10.612,10001,411,,178,,,0,californiacity,0,CaliforniaCity,,,178,,4,87654,,87654,1,
,0,cc:420,0,2018-10-01 11:51:09.361,1244 Fair Oaks Ave,,,,,,,10061,,2018-10-01 11:51:09.361,10001,420,,176,,,0,pasadena,0,Pasadena,10003.0,,176,,4,91101,,91101,1,
,0,cc:417,0,2018-10-01 11:46:22.765,1800,,Duval,,,,,10067,ab:601,2018-10-01 11:52:05.965,10001,417,,3,,,1,duvalcity,0,Duvalcity,,,176,,4,78907,,78907,1,
,0,cc:418,0,2018-10-01 11:48:56.209,1244 Fair Oaks Ave,,,,,,,10061,,2018-10-01 11:48:56.209,10001,418,,176,,,0,pasadena,0,Pasadena,10003.0,,176,,4,91101,,91101,1,
,0,cc:328,0,2018-09-30 20:26:48.536,1244 Fair Oaks Ave,,,,,,,10061,,2018-09-30 20:26:48.536,10001,328,,3,,,0,pasadena,0,Pasadena,10003.0,,3,,4,91101,,91101,1,
,0,cc:329,0,2018-09-30 20:26:48.536,215 Maple Ave.,,,,,,,10085,,2018-09-30 21:40:06.969,10001,329,,3,,,1,thorndike,0,Thorndike,10003.0,,3,,4,01079,,01079,1,
,0,cc:423,0,2018-10-01 12:44:49.467,1244 Fair Oaks Ave,,,,,,,10061,,2018-10-01 12:44:49.467,10001,423,,3,,,0,pasadena,0,Pasadena,10003.0,,3,,4,91101,,91101,1,
,0,cc:424,0,2018-10-01 13:22:50.095,1244 Fair Oaks Ave,,,,,,,10061,,2018-10-01 13:22:50.095,10001,424,,3,,,0,pasadena,0,Pasadena,10003.0,,3,,4,91101,,91101,1,
,0,cc:425,0,2018-10-01 13:22:50.095,215 Maple Ave.,,,,,,,10085,,2018-10-01 13:24:50.297,10001,425,,3,,,1,thorndike,0,Thorndike,10003.0,,3,,4,01079,,01079,1,
,0,cc:426,0,2018-10-01 13:32:42.686,1244 Fair Oaks Ave,,,,,,,10061,,2018-10-01 13:32:42.686,10001,426,,3,,,0,pasadena,0,Pasadena,10003.0,,3,,4,91101,,91101,1,
,0,cc:402,0,2018-10-01 11:04:17.502,,,Duval,,,,,10067,ab:601,2018-10-01 11:04:17.502,10001,402,,3,,,0,duvalcity,0,Duvalcity,,,3,,4,78907,,78907,1,
,0,cc:305,0,2018-09-30 19:40:49.223,1244 Fair Oaks Ave,,,,,,,10061,,2018-09-30 19:40:49.223,10001,305,,3,,,0,pasadena,0,Pasadena,10003.0,,3,,4,91101,,91101,1,
,0,cc:306,0,2018-09-30 19:40:49.223,215 Maple Ave.,,,,,,,10085,,2018-09-30 19:42:30.758,10001,306,,3,,,1,thorndike,0,Thorndike,10003.0,,3,,4,01079,,01079,1,
,0,cc:309,0,2018-09-30 19:47:30.953,55 California St,,,,,,,10074,,2018-09-30 19:47:30.953,10001,309,,3,,,0,washington,0,Washington,10002.0,,3,,4,61571,,61571,1,
,0,cc:310,0,2018-09-30 19:47:30.953,425 Madison St.,,,,,,,10074,,2018-09-30 19:48:10.007,10001,310,,3,,,1,chicago,0,Chicago,10002.0,,3,,4,60606,,60606,1,
,0,cc:311,0,2018-09-30 19:47:30.953,2000 Park Avenue,,,,,,,10074,,2018-09-30 19:47:30.953,10001,311,,3,,,0,washington,0,Washington,10002.0,,3,,4,61571,,61571,1,
,0,cc:312,0,2018-09-30 19:47:30.953,908 Angels Landing Rd.,,,,,,,10061,,2018-09-30 19:47:30.953,10001,312,,3,,,0,anaheim,0,Anaheim,10003.0,,3,,4,91352,,91352,1,
,0,cc:313,0,2018-09-30 19:50:13.584,1244 Fair Oaks Ave,,,,,,,10061,,2018-09-30 19:50:13.584,10001,313,,3,,,0,pasadena,0,Pasadena,10003.0,,3,,4,91101,,91101,1,
,0,cc:314,0,2018-09-30 19:50:13.584,215 Maple Ave.,,,,,,,10085,,2018-09-30 19:50:47.928,10001,314,,3,,,1,thorndike,0,Thorndike,10003.0,,3,,4,01079,,01079,1,
,0,cc:315,0,2018-09-30 19:52:10.646,1244 Fair Oaks Ave,,,,,,,10061,,2018-09-30 19:52:10.646,10001,315,,3,,,0,pasadena,0,Pasadena,10003.0,,3,,4,91101,,91101,1,
,0,cc:316,0,2018-09-30 19:52:10.646,215 Maple Ave.,,,,,,,10085,,2018-09-30 19:53:10.438,10001,316,,3,,,1,thorndike,0,Thorndike,10003.0,,3,,4,01079,,01079,1,
,0,cc:323,0,2018-09-30 20:03:59.187,1805,,Imperial,,,,,10061,,2018-09-30 20:03:59.187,10001,323,,3,,,0,city,0,CIty,,,3,,4,12345,,12345,1,
,0,cc:324,0,2018-09-30 20:08:36.646,1244 Fair Oaks Ave,,,,,,,10061,,2018-09-30 20:08:36.646,10001,324,,3,,,0,pasadena,0,Pasadena,10003.0,,3,,4,91101,,91101,1,
,0,cc:325,0,2018-09-30 20:08:36.646,215 Maple Ave.,,,,,,,10085,,2018-09-30 20:10:55.092,10001,325,,3,,,1,thorndike,0,Thorndike,10003.0,,3,,4,01079,,01079,1,
,0,cc:326,0,2018-09-30 20:10:55.092,test,,,,,,,10061,,2018-09-30 20:10:55.092,10001,326,,3,,,0,,0,,,,3,,4,98765,,98765,1,
,0,cc:421,0,2018-10-01 11:52:40.267,1800,,Duval,,,,,10067,,2018-10-01 11:52:40.267,10001,421,,176,,,0,duvalcity,0,Duvalcity,,,176,,4,78907,,78907,1,
,0,cc:422,0,2018-10-01 12:26:42.859,1244 Fair Oaks Ave,,,,,,,10061,,2018-10-01 12:26:42.859,10001,422,,3,,,0,pasadena,0,Pasadena,10003.0,,3,,4,91101,,91101,1,
,0,cc:427,0,2018-10-01 15:15:09.583,,,Duval,,,,,10067,,2018-10-01 15:15:09.583,10001,427,,3,,,0,duvalcity,0,Duvalcity,,,3,,4,78907,,78907,1,
,0,cc:428,0,2018-10-01 15:29:11.077,1806,,,,,,,10067,,2018-10-01 15:29:11.077,10001,428,,178,,,0,florida city,0,Florida City,,,178,,4,67890,,67890,1,
,0,cc:336,0,2018-09-30 22:11:39.627,1244 Fair Oaks Ave,,,,,,,10061,,2018-09-30 22:11:39.627,10001,336,,3,,,0,pasadena,0,Pasadena,10003.0,,3,,4,91101,,91101,1,
,0,cc:337,0,2018-09-30 22:11:39.627,215 Maple Ave.,,,,,,,10085,,2018-09-30 22:12:21.756,10001,337,,3,,,1,thorndike,0,Thorndike,10003.0,,3,,4,01079,,01079,1,
